{"type":"FeatureCollection","features":[{"type":"Feature","properties":{},"geometry":{"coordinates":[[-63.2566819676785,10.666523196217952],[-63.25471203018783,10.665012151511007],[-63.253335644720494,10.66675305514488],[-63.250103733089034,10.664252871900047],[-63.25181943160206,10.662099250650414],[-63.25375138317449,10.659669000087149],[-63.254550006180494,10.658634539345485],[-63.255405455924816,10.657565097499486],[-63.25576544261854,10.657052679734917],[-63.25585546048346,10.65676544505908],[-63.25582906249103,10.65653342194284],[-63.25583809533755,10.65634809233832],[-63.25589877415379,10.65609449274055],[-63.25679392724933,10.654627864516357],[-63.257010179631635,10.654285825078532],[-63.257159635957436,10.654028827904682],[-63.25730371080549,10.653670286127024],[-63.25735367494954,10.653037855313116],[-63.257190957350375,10.651835456418496],[-63.257058926302236,10.650609564319595],[-63.25684194978689,10.649346714635996],[-63.25662614816913,10.648156572961213],[-63.25642097942806,10.647039369193692],[-63.25622231376265,10.645821471608727],[-63.25609659931416,10.645159127323609],[-63.25598211715449,10.644101341246682],[-63.255859216159834,10.643157560614966],[-63.25581998414903,10.642398775832348],[-63.255944765577084,10.641782500766169],[-63.25667763907087,10.64036494042027],[-63.25678536798654,10.640091676913855],[-63.256842845924325,10.639848656810557],[-63.25681163417897,10.639681135563166],[-63.25671620335849,10.63915455798086],[-63.25652896041895,10.63789995578324],[-63.25638043528393,10.636676014181731],[-63.25620019099944,10.63511932747545],[-63.256120387578946,10.63435814078123],[-63.255929222872396,10.632843467330787],[-63.25581270508678,10.631805961396509],[-63.25579121526164,10.631577499195288],[-63.255822409499615,10.63131174432192],[-63.25594169818076,10.631082845534223],[-63.25603523021887,10.63092903334993],[-63.25662955691254,10.630532352581],[-63.25724964158145,10.630064382799603],[-63.25741403549141,10.62982139503211],[-63.25757504795958,10.629645032106822],[-63.25795928236869,10.629555413213112],[-63.26002651860421,10.629137794373534],[-63.26108477820067,10.628641891114043],[-63.26221044956914,10.628107519647159],[-63.26254494014037,10.62783101754988],[-63.26437130391868,10.626492810279785],[-63.26587945653445,10.625409777561316],[-63.26779001649621,10.624126883612135],[-63.269148443788794,10.623226674833873],[-63.26967805662724,10.622680976295626],[-63.27013713682021,10.622317704391904],[-63.27196904000337,10.621455077636185],[-63.27222758840702,10.621227186495872],[-63.27239734665066,10.62042864352189],[-63.273759074603745,10.620118723914885],[-63.27460482237373,10.619717266958077],[-63.275237393800154,10.619350123370737],[-63.27604379498193,10.619165818453837],[-63.279235538524134,10.61771667822481],[-63.281250995052204,10.616785012300497],[-63.28208843327246,10.618802618334726],[-63.28215661907696,10.618743553723121],[-63.28208014345056,10.618545591618613]],"type":"LineString"}}]}