{"type":"FeatureCollection","features":[{"type":"Feature","properties":{},"geometry":{"coordinates":[[-63.25993217682344,10.637141228940337],[-63.25895739715244,10.636588596987792],[-63.258858602548585,10.636578061534465],[-63.2592746588187,10.633665926544637],[-63.259618768757065,10.631497958194245],[-63.259711675142356,10.630996811188723],[-63.25991472418974,10.630977912371748],[-63.26011009218999,10.630908029565148],[-63.260356357100264,10.630705522674717],[-63.26050176259601,10.63049063517937],[-63.26060089597786,10.630312706331765],[-63.26066473286997,10.630170714637146],[-63.26072527508495,10.63008072863903],[-63.260790788217506,10.630042109471418],[-63.26004279431467,10.629152423674952],[-63.25759262657391,10.629639783766308],[-63.25739791889603,10.629751421490866],[-63.25733628324514,10.629884555746571],[-63.25727248896614,10.630038220215937],[-63.25653874304656,10.630561674684415],[-63.25583951729699,10.630846178802543],[-63.25480132687767,10.630862294069956],[-63.25469500340587,10.63090334321494],[-63.25462436491141,10.630957352959811],[-63.2545315695252,10.631067636425527],[-63.254488240236626,10.631216143036028],[-63.25447992133641,10.631315853185257],[-63.25448259302895,10.631429448489186],[-63.25449416702318,10.631682055278532],[-63.254511194413766,10.631844459777355],[-63.25460528461633,10.632592042446134],[-63.25470898307381,10.633217695403133],[-63.25476753111731,10.634000691562534],[-63.25488221976683,10.634885750213172],[-63.25500275481275,10.635951605071568],[-63.25513146538081,10.637165762279722],[-63.255257810808715,10.638137373507504],[-63.25529981099692,10.63876548987571],[-63.255417282222325,10.639609206162348],[-63.2554963514842,10.640331005438554],[-63.25556847669462,10.640535710822618],[-63.25565067579255,10.640644611412483],[-63.2557075383008,10.6406837804889],[-63.255791321371234,10.64075187627381],[-63.25584719579375,10.640802240968611],[-63.255858149394896,10.640878873027177],[-63.25586451032578,10.64111542543354],[-63.25559655895219,10.641810191532954],[-63.255522401085955,10.642113890732773],[-63.25546321512377,10.642615904667878],[-63.255489816794,10.643269341512138],[-63.25554855284683,10.643598928502882],[-63.2556703628139,10.643946092425992],[-63.25574251887652,10.64409387290489],[-63.25583035576497,10.644246970020959],[-63.25590839989829,10.644649514607323],[-63.25594872889559,10.64492493765951],[-63.25603903633876,10.645663853749411],[-63.256132526899194,10.646379769726408],[-63.25625927397566,10.647022543742139],[-63.25639497041507,10.64770094493447],[-63.2565452325,10.648315669402308],[-63.25670872086887,10.649197316183276],[-63.256767376236255,10.64951981687453],[-63.25683827764132,10.650199178990988],[-63.25692453662661,10.650798936942437],[-63.256967322379865,10.651436514240174],[-63.25705401277261,10.652106864619128],[-63.257088035500146,10.652509703506752],[-63.257118430865575,10.653211514955359],[-63.25710488416745,10.653648184589656],[-63.25703164771788,10.653932813647188],[-63.256701174027256,10.654511925129853],[-63.25630275857401,10.655100105550687],[-63.25580345970401,10.655912005181662],[-63.255717584438415,10.656208565979341],[-63.25571093266619,10.65635418873049],[-63.25570591664655,10.656560971756235],[-63.255734452342026,10.656742619544175],[-63.25578413715263,10.656879755038744],[-63.25581820136047,10.656947053737113],[-63.255936478482155,10.657129835511611],[-63.25625021045647,10.657392812075926],[-63.25638128993661,10.65748423788638],[-63.25587803933607,10.658158164561172],[-63.255295514629054,10.658888506979679],[-63.255124278935554,10.659106034447845],[-63.25469030622422,10.659654676312414],[-63.25456070853892,10.659826646288224],[-63.25425603514229,10.660231096807905],[-63.25415060813938,10.660353386576318],[-63.253807370339416,10.660773245836708],[-63.25334173881612,10.661365273284034],[-63.25251214810949,10.66243871446278],[-63.25181170280699,10.663369872467669],[-63.250115133065194,10.66551860336213],[-63.2507947633306,10.665997081893025],[-63.25336221254791,10.662899374010394],[-63.25622822100745,10.665081190761128],[-63.25678011684059,10.665499932050665],[-63.25790222917641,10.666389621804186],[-63.25714127309952,10.667230481960715],[-63.25597408606515,10.668754829467602],[-63.252041910347685,10.665783746013872],[-63.250835890954306,10.667308747384581],[-63.25019832594994,10.666799520603647],[-63.251286259443575,10.665456927310743]],"type":"LineString"}}]}