{"type":"FeatureCollection","features":[{"type":"Feature","properties":{},"geometry":{"coordinates":[[-63.25127791588754,10.665414594379229],[-63.252499159252125,10.663958015739865],[-63.25375526431361,10.66237980984529],[-63.25531558873263,10.66042536227684],[-63.25688826746452,10.658439875365062],[-63.25724066467575,10.658010210251874],[-63.25648049904527,10.657397241108796],[-63.25617760737843,10.657164671508099],[-63.25598939740563,10.657010286156748],[-63.25587649161598,10.65682382373096],[-63.25578537843046,10.65648575703706],[-63.25584792448521,10.656170869084463],[-63.256175147770335,10.65555915881194],[-63.25682415290605,10.65453534890068],[-63.25701530782885,10.654265157215448],[-63.25719809160887,10.653906763747955],[-63.25727280613144,10.653693024901202],[-63.25733232073509,10.653427031701057],[-63.257304955187976,10.652802465136133],[-63.25720730132369,10.65197035779562],[-63.25716629362114,10.651188346879351],[-63.257036326822984,10.650526993474656],[-63.25689188597073,10.64989702541132],[-63.256846213854004,10.649277406986116],[-63.25674572672199,10.648841000546156],[-63.2566179454097,10.648237597931569],[-63.25652232814929,10.647581823855333],[-63.25640207138903,10.647018134354326],[-63.25628314494358,10.646209878037936],[-63.256170742197696,10.645547095415907],[-63.256125065937724,10.64489575052231],[-63.25598812261701,10.644117800484949],[-63.25589447137945,10.643335041641265],[-63.25583648726558,10.642555494179604],[-63.25584762182564,10.642338695474649],[-63.25591189343899,10.642054316312581],[-63.25595546844539,10.641871928573067],[-63.25645868611258,10.640869643105248],[-63.256725309678075,10.640348736790486],[-63.25677805248206,10.64000606198833],[-63.256798221355794,10.639755068133312],[-63.25672102296613,10.639299929199652],[-63.25737662358064,10.63942574094051],[-63.258347427847426,10.63957977103074],[-63.2595184837451,10.639758450948435],[-63.26020014273473,10.639870790410214],[-63.26042233103644,10.640066996916829],[-63.260606741070106,10.640094296747407],[-63.261328996069196,10.639384254376296],[-63.26197156780803,10.638180354282056],[-63.263241096508324,10.63882676929643],[-63.26329314862248,10.63874317626724],[-63.263289991965124,10.63859395483513],[-63.26326431327918,10.637843895072692],[-63.2633638815979,10.637416306579823],[-63.263573403033575,10.636838148447154],[-63.26353480242197,10.636638029231264],[-63.263632884808615,10.63630112508713],[-63.26361498486867,10.63622472675182],[-63.26235308285641,10.636170759644116],[-63.26227497922979,10.636125843169992],[-63.26209349138921,10.6361060487623],[-63.26179879744417,10.63582259434149],[-63.261577223881986,10.635582041000262],[-63.26150488290065,10.635568720692333],[-63.26110591003737,10.636819942814569],[-63.26072881454115,10.637507468610863],[-63.259837693101275,10.637086858513484],[-63.25924499149035,10.636758899830951],[-63.258943834342276,10.636575915516119],[-63.25884796176841,10.63658886223682],[-63.259191587135405,10.63440086701334],[-63.25933204978007,10.633329961863211],[-63.25968516964248,10.63098038521268],[-63.260070411049796,10.630966077515552],[-63.2604028294443,10.630598880751904],[-63.260600850225615,10.630318421846198],[-63.26075563747051,10.630078076113733],[-63.26007015507997,10.629217441011406],[-63.259412515183286,10.629330893616569],[-63.2574925289417,10.629696468966756],[-63.25718360822384,10.630057064806408],[-63.25686031199953,10.630364740905634],[-63.25653793105553,10.630504282502727],[-63.256166542032204,10.630667586237223],[-63.255887897366975,10.63079019731876],[-63.25553770634336,10.630830630763427],[-63.254839496211375,10.630841115065635],[-63.25462387640572,10.630931236284098],[-63.25446341823529,10.631179900384922],[-63.25445178607944,10.631520920347512],[-63.25449749954237,10.631922771262353],[-63.25501789066202,10.635927558865689],[-63.255284011534485,10.63865303194251],[-63.25557785461032,10.640603633902927],[-63.25585624513545,10.640823190976477],[-63.25593137231992,10.641029568724733],[-63.255591186813035,10.641811332544194],[-63.25547001161419,10.642341994626818],[-63.25542606567403,10.642792195266523],[-63.255519552326376,10.643550671959716],[-63.25560202797324,10.643877514166547],[-63.255805377133456,10.644234061631963],[-63.255890558439006,10.644568850774093],[-63.25615431012193,10.646064962290652],[-63.256383805308076,10.647594698225078],[-63.25673132772066,10.649371278044669],[-63.25681535796451,10.650097074062742],[-63.25709312580585,10.652428352452318],[-63.257216205218924,10.653268656944505],[-63.257126421734455,10.653599634090384],[-63.25697890044607,10.65394183590297],[-63.25680586886021,10.654301196148523],[-63.25646769980435,10.654826852649222],[-63.255831405928234,10.655886448605315],[-63.25566288011515,10.656217910542878],[-63.25572576542483,10.656512603660659],[-63.255759377543896,10.656802915561343],[-63.25614267736907,10.65728815674035],[-63.25636936782722,10.657487254974455],[-63.25616732372008,10.657788815978165],[-63.25427425110563,10.660202145542073],[-63.253736835049224,10.66087469186148],[-63.250116157387325,10.665494829726185],[-63.25074989307585,10.665985227168136],[-63.25149983425837,10.6650611493599],[-63.2526746933445,10.663657999458053],[-63.25331153303182,10.662842761069115],[-63.25370413061974,10.663124277729366],[-63.25451539056759,10.663784617432569],[-63.25536231538102,10.664424423186162],[-63.25588056341593,10.66481067034934],[-63.25663314280236,10.6653978095256],[-63.257504708353466,10.666075328108448],[-63.25787242750779,10.666399525573041],[-63.25744166303542,10.666869558105759]],"type":"LineString"}}]}