{"type":"FeatureCollection","features":[{"type":"Feature","properties":{},"geometry":{"coordinates":[[-63.24755765068974,10.635191793259594],[-63.24778470602291,10.635377599693797],[-63.24921252662443,10.632827647629597],[-63.24481372317132,10.630318018049223],[-63.24431003304991,10.63119968919736],[-63.246388354583345,10.632386757095347],[-63.24693103184879,10.633415313347825],[-63.24724229254532,10.634639486475038],[-63.24738184938528,10.634914970165298],[-63.24766317487608,10.63524021441674],[-63.24856537711075,10.635863502833075],[-63.251149450068056,10.637490501670058],[-63.25152809089174,10.637782066041751],[-63.25181220053763,10.6381089909966],[-63.25203043600003,10.638334878637878],[-63.25307106066431,10.638893596512773],[-63.25368998938322,10.639038554540505],[-63.254008498762616,10.639238044683722],[-63.254336820779855,10.639494585551077],[-63.25539707287629,10.64013485446857],[-63.25549953472513,10.640499729079039],[-63.25557218000027,10.64077522586183],[-63.2557009483897,10.640684320769367],[-63.255856785672535,10.640807625767692],[-63.25587245076022,10.640983148316295],[-63.2558021971675,10.641217217409235],[-63.25552734116212,10.641884558193638],[-63.25548760057036,10.642092869472108],[-63.25543656785281,10.642323069242366],[-63.2554279979347,10.64252413273455],[-63.25542503638745,10.642979719836575],[-63.25545760220993,10.643188637372603],[-63.255512582090354,10.643312081439525],[-63.255660575524004,10.643358448482871],[-63.25579070733923,10.64326624785869],[-63.255808351237896,10.642721853722584],[-63.25591158843109,10.642356062639152],[-63.25605568873675,10.642307957581192],[-63.256200704254276,10.642298956041707],[-63.25736778659858,10.642491320539367],[-63.258934948417995,10.642756173501278],[-63.259808990671786,10.642892884075565],[-63.26091307770322,10.643132803608381],[-63.26064010660378,10.644643133290344],[-63.26040516499762,10.646038587831043],[-63.25793476750722,10.645615514824229],[-63.257071900173685,10.645481439093814],[-63.256649084688775,10.645496260596374],[-63.256320608722845,10.645541191465483],[-63.25602146145806,10.645610184291328],[-63.25602696909533,10.645729233311556],[-63.25622901036968,10.647014095637587],[-63.256485594766886,10.648216477884844],[-63.25669969969948,10.64934550319073],[-63.25680481355121,10.650183475120784],[-63.256856992535006,10.650733842784447],[-63.2570198462337,10.651950690580719],[-63.25709943633619,10.652660416945622],[-63.25716821683059,10.65324943333124],[-63.25707548498609,10.65374813355021],[-63.256586347234446,10.654652770503006],[-63.25605801657042,10.655493769916319],[-63.25592129419033,10.655726446065515],[-63.2556743608845,10.656111440263672],[-63.25534874872103,10.656332787150205],[-63.2544370534125,10.657433852060109],[-63.253267228057936,10.658918757358578],[-63.252364498075025,10.66003620768511],[-63.251377492738115,10.661334796581912],[-63.24882297825481,10.664493632163413],[-63.25218948902324,10.667095320736578],[-63.25250698034846,10.666647422445607],[-63.25284921145557,10.666156444550566],[-63.25472028903803,10.663952183564703],[-63.257904126635836,10.666449245600035],[-63.25712583774319,10.667225490022417]],"type":"LineString"}}]}