{"type":"FeatureCollection","features":[{"type":"Feature","properties":{},"geometry":{"coordinates":[[-63.257369066003704,10.629990885219556],[-63.25719884249044,10.629994230631311],[-63.25694812193112,10.629894644379263],[-63.25649682491148,10.629715389028902],[-63.25608516082855,10.629623611293411],[-63.25555812233188,10.629606239943016],[-63.25451178682414,10.629648102054261],[-63.25437414432784,10.629571486749498],[-63.25414698877502,10.629570802855099],[-63.253805253044476,10.629612861696913],[-63.25347347241791,10.629710409905783],[-63.25287533896788,10.629903973507083],[-63.25256170440154,10.630195356085238],[-63.25229217599623,10.630593522559266],[-63.25174511287588,10.630974398185728],[-63.2515009574106,10.630954847792609],[-63.25174306190105,10.629509445082093],[-63.251273872109195,10.629537189518956],[-63.25115605140394,10.629396907700269],[-63.25115112354521,10.629065647491075],[-63.25095679822441,10.629045757530719],[-63.25090092750909,10.62836978369522],[-63.25094244027723,10.6269644353942],[-63.24926379242595,10.626802938180361],[-63.24910978759027,10.626921497591994],[-63.24903947505989,10.627228302470328],[-63.24895866104863,10.627361707951167],[-63.24870555275572,10.627469852799251],[-63.248116742711545,10.626891591728707],[-63.24732253568226,10.627629181978918],[-63.246758760907156,10.628101853549595],[-63.24654511752948,10.628369216405943],[-63.24653388140601,10.628671138560989],[-63.24649403401796,10.62905661590274],[-63.24636556417556,10.629464560897134],[-63.246227161187676,10.62975638001673],[-63.246180494720534,10.629951950814302],[-63.247652638610745,10.630804126722268],[-63.24933021746973,10.631756595188179],[-63.24970808045563,10.631979228027788],[-63.25027752850971,10.631106424631156],[-63.251088770531084,10.631605888979678],[-63.2515352620062,10.630953451570875],[-63.25184151389493,10.63094362483703],[-63.252399006761124,10.630439848592218],[-63.25264630738755,10.630150483528425],[-63.25295602985021,10.629855251439139],[-63.253632778457074,10.629647387499404],[-63.254268638959175,10.629537189923866],[-63.2545686028116,10.629614946988298],[-63.25499684894311,10.629622898301832],[-63.255912036539826,10.629615250031136],[-63.25650198966653,10.629696042713235],[-63.25706048926254,10.629914957397233],[-63.257285142541235,10.630014415163828],[-63.256782027065256,10.630447581250962],[-63.25596606909569,10.630822398961627],[-63.2552852848426,10.63085388547944],[-63.2549368627828,10.630849396890227],[-63.254643403065444,10.630930526420599],[-63.25449601835689,10.631163653135218],[-63.25450573809434,10.631659306890171],[-63.254621820514316,10.63269872482391],[-63.254782029734514,10.634106734938456],[-63.254951706604146,10.63566312966475],[-63.25527431748388,10.63834328427113],[-63.255448945018,10.639890055209875],[-63.255456904788375,10.640260645602197],[-63.25554826305428,10.64059817492415],[-63.25579173877789,10.640728963797187],[-63.255925355157075,10.640909617029976],[-63.255775863481276,10.641342900725334],[-63.25552222528552,10.642013903879459],[-63.25546194548329,10.6426756149815],[-63.25547766422868,10.64335183994271],[-63.25568376369475,10.643972737017137],[-63.25582177751545,10.644325051631625],[-63.25592740352356,10.644717574639373],[-63.256141544610344,10.646205456093412],[-63.2563714030355,10.647622233698343],[-63.25677303897804,10.649684798863248],[-63.25687535550756,10.650402219135287],[-63.257011789261355,10.651769993298075],[-63.25715057074514,10.65298525762779],[-63.25714171540257,10.6534754460111],[-63.257067868168505,10.653799597169225],[-63.25694758318127,10.654110173172128],[-63.25612728959969,10.655477481435256],[-63.255888760967906,10.655864762071516],[-63.25548781454863,10.656254231946832],[-63.25510722066541,10.65653639981808],[-63.254134426498496,10.657787775744126],[-63.25312566826602,10.65911223983963],[-63.250465578498876,10.6624874808969],[-63.25016344573348,10.662830175907729],[-63.24884255242651,10.66451763771569],[-63.250764573201806,10.666004450026023],[-63.251952736319865,10.664581867083143],[-63.253366774670255,10.662891136184342],[-63.257881736205036,10.666390848460026],[-63.25780985642325,10.666513083952125]],"type":"LineString"}}]}