{"type":"FeatureCollection","features":[{"type":"Feature","properties":{},"geometry":{"coordinates":[[-63.247865163477854,10.665026489360471],[-63.24746904905412,10.664746103807502],[-63.24699677596668,10.665357143912445],[-63.24591654346111,10.666803189899966],[-63.245697648280014,10.667125739826275],[-63.24545648526495,10.6670962625074],[-63.24446880033193,10.666851137811918],[-63.24362609844957,10.666644558243433],[-63.24340419851791,10.667586785272348],[-63.24332278558529,10.667620118414206],[-63.242743801884444,10.667398536427484],[-63.24107691399726,10.666862492116167],[-63.24051927583109,10.666598863341065],[-63.24032525258096,10.666426515054027],[-63.24026704932756,10.666134694751989],[-63.240078846496615,10.665655292920121],[-63.23972549041251,10.665281246200863],[-63.23955545411181,10.664953789817346],[-63.239131984131305,10.664048788996666],[-63.23890085672123,10.663618060039923],[-63.23829277487002,10.662988759232107],[-63.237427914754036,10.662298952172918],[-63.237275911608975,10.662192440614575],[-63.23714442339663,10.662029085346774],[-63.23677163072786,10.661399856655265],[-63.23660319080395,10.660996386673219],[-63.2365395358963,10.660532062795255],[-63.236426683632985,10.66019610227707],[-63.23627115279302,10.659860459119813],[-63.2357427064896,10.659331222495197],[-63.23516057263197,10.658865947769243],[-63.23438226149827,10.658037453418558],[-63.23371319216359,10.657237817051254],[-63.23297671767166,10.656263191518647],[-63.232333614870186,10.655378609076394],[-63.23149822169523,10.654331424122006],[-63.2305323070828,10.653029272790448],[-63.23020046380941,10.652351577770517],[-63.22998392622753,10.651539238962016],[-63.22999109794016,10.651240300621794],[-63.230090339903896,10.650417543260545],[-63.23005276262583,10.649914197933114],[-63.229945742670935,10.649564294190398],[-63.22964941563343,10.648822290637511],[-63.22944511510184,10.648220324515009],[-63.229167397919426,10.647578331038844],[-63.22938791822165,10.647468369778977],[-63.229823268914544,10.647398436909384],[-63.23006506568905,10.647414757194042],[-63.23070632179423,10.647615096976267],[-63.231014014100836,10.646884770794301],[-63.2314344930339,10.646127224489348],[-63.231552992527696,10.645981576387456],[-63.231579442618795,10.646032517243256],[-63.2311946062096,10.646607082373748],[-63.230989231892664,10.647034776871749],[-63.23074490875646,10.647606746006062],[-63.23095296533954,10.647748676227835],[-63.23180004620181,10.648110919693181],[-63.232672733798566,10.6485065898909],[-63.23308179883293,10.648607792286668],[-63.23354101137548,10.64868957846987],[-63.23391923793534,10.64865949160449],[-63.23448981055894,10.648600816360997],[-63.23502903969522,10.648528508821343],[-63.23567751247124,10.648438586733675],[-63.23622097082374,10.64846605127832],[-63.23664580791743,10.648496973014858],[-63.23717691902648,10.648593579383245],[-63.237545510736666,10.648656377387454],[-63.23787362912084,10.648680771020025],[-63.238393682234104,10.648662076019278],[-63.23880941370908,10.64858199471908],[-63.23945466342515,10.648443463967837],[-63.239957197820104,10.648340029196731],[-63.24047122551322,10.648295514238995],[-63.24100372343136,10.648328420182068],[-63.24133782657091,10.64835715020159],[-63.241718082895005,10.648392085111766],[-63.242152951742995,10.64834877819986],[-63.24244626415185,10.648256131691753],[-63.24275536112873,10.648139640664695],[-63.24323057111077,10.64775163670943],[-63.243462219080826,10.647442846733341],[-63.24368050153694,10.64704720271402],[-63.24402121452195,10.646531455738923],[-63.24445812130426,10.645949048593678],[-63.24481138962042,10.645601276404705],[-63.24507496723368,10.645465420374322],[-63.246011137841435,10.645247282920238],[-63.24631595096065,10.645241172166507],[-63.24786018192239,10.645036394978519],[-63.24831818347347,10.644764508988757],[-63.24862940606303,10.644368112378444],[-63.248872614131514,10.643840723577455],[-63.24930574698372,10.643235925773268],[-63.2497076795636,10.642927951138347],[-63.25043910358383,10.642708763606294],[-63.250969510896695,10.642494732678443],[-63.251461088990226,10.642347632286473],[-63.25247178770529,10.642118869163028],[-63.253085475304005,10.641971069151012],[-63.25345612806005,10.641932071916798],[-63.25395859365149,10.641873684203006],[-63.25424055856949,10.641854306877278],[-63.25453161574636,10.641936583492097],[-63.25513392580649,10.642034358334783],[-63.25534288697038,10.642157807435012],[-63.25541601948355,10.642249942681858],[-63.25552518474355,10.643257329029979],[-63.25558707066256,10.643318946563085],[-63.255676443429465,10.643316599270548],[-63.2557540724526,10.643288966449916],[-63.25582007923762,10.643185807390068],[-63.25576871576784,10.64284441618085],[-63.25578369107558,10.642369357602078],[-63.2559126703825,10.64190919547218],[-63.25612177896183,10.64150149961091],[-63.25649263839095,10.640718899633114],[-63.25676502513504,10.640155769156905],[-63.25662863306809,10.640056941248517],[-63.25648212120164,10.640062623429316],[-63.25632508438268,10.640234035812398],[-63.25570091666523,10.641452574361352],[-63.25547641085511,10.64210075720591],[-63.2554406682391,10.643144666506899],[-63.25550168485998,10.643541179057124],[-63.255581755255776,10.64380610324271],[-63.255806849371425,10.644332860106331],[-63.25593540471384,10.644700019322457],[-63.25593472322866,10.645057417048776],[-63.25606102010988,10.64623688838094],[-63.25634767900554,10.647636763495996],[-63.256702512571636,10.64928279706399],[-63.256925875365525,10.65071681420821],[-63.25707984344746,10.652232178328944],[-63.257166527785245,10.653399598041503],[-63.257046077340405,10.653893881888905],[-63.2567464888845,10.654452506279583],[-63.256477418209414,10.65487943448521],[-63.25613847963608,10.655316063859757],[-63.25574170753025,10.656011804496003],[-63.25534613083033,10.656357068358602],[-63.25441561185289,10.657431029550608],[-63.25411822036969,10.657797105091475],[-63.25382663999315,10.658200941451753],[-63.25363639712597,10.65845452889161],[-63.25291822796842,10.659351137723021],[-63.25250066239835,10.659915320713736],[-63.25175681199478,10.660785485295435],[-63.25144095963367,10.661244424534999],[-63.24882261042656,10.664536157821402],[-63.250769843777505,10.66599715146539],[-63.25195863888801,10.66466774353026],[-63.25219610343228,10.664385238302117],[-63.25505601689099,10.666535556627665],[-63.25669874238665,10.667775863527694],[-63.25652704929074,10.667965023215856]],"type":"LineString"}}]}