{"type":"FeatureCollection","features":[{"type":"Feature","properties":{},"geometry":{"coordinates":[[-63.25096638878908,10.667159143687883],[-63.25009739594343,10.668286032777416],[-63.2520428408009,10.669837919790723],[-63.25270376514504,10.669757347794047],[-63.253252794723025,10.669793526628766],[-63.25405881328476,10.669788004055377],[-63.25445097728894,10.669813846080245],[-63.25517178963459,10.669862483287588],[-63.25568309589421,10.670010034041596],[-63.256271617568416,10.670129654188301],[-63.25656996081058,10.670172085314135],[-63.25764643111975,10.670391035151994],[-63.25796428504596,10.670487126387442],[-63.25814321032249,10.6703269918806],[-63.25796836070383,10.669901028045771],[-63.25795496716353,10.669536938361844],[-63.258056596339884,10.669219140155391],[-63.25849585366949,10.6688301924205],[-63.25878127719159,10.668484654420922],[-63.259175162865944,10.668043790690348],[-63.259524102022795,10.66770129866417],[-63.259701339144954,10.66753194275772],[-63.25961831219975,10.667475235543037],[-63.25930618639387,10.667800496213317],[-63.25896231154198,10.66817064786619],[-63.25879155107401,10.668296025446864],[-63.25845025875661,10.66796611779246],[-63.25746939155822,10.669062836797806],[-63.25712477017056,10.669376008748003],[-63.2568240730123,10.669452973246592],[-63.25593987144188,10.668776458658101],[-63.25539932950515,10.669447897582089],[-63.25560993859736,10.669672412977079],[-63.25565720543159,10.66993056917508],[-63.25840502867459,10.6706537695909],[-63.25928048781688,10.671009698836713],[-63.26067130917836,10.671551111943074],[-63.26151283166706,10.671827396616564],[-63.262955566566035,10.671683768331548],[-63.26488322343242,10.67130312822519],[-63.266682566648285,10.670707303342795],[-63.26883564299018,10.669882144802287],[-63.26953218967506,10.669454395783234],[-63.269896045994386,10.66911402690856],[-63.27015642374502,10.668711048294256],[-63.270389045386196,10.668103572139131],[-63.270693179535,10.667556860459612],[-63.271019702587935,10.667118387949145],[-63.27134536479629,10.666913268874666],[-63.27291886272761,10.666161753381175],[-63.27489370785432,10.665100848891583],[-63.27594115733484,10.66442067616066],[-63.27661593067391,10.663814781024925],[-63.277636360258626,10.663270930923673],[-63.27915393352737,10.662777721964687],[-63.28068891792434,10.662552657804994],[-63.282715167221625,10.662432336904075],[-63.284598232366406,10.66226452067842],[-63.28580813002516,10.662259994062651],[-63.287475304009405,10.662445628474174],[-63.28972869229702,10.662636947451787],[-63.29175800809536,10.662939384000339],[-63.29381751589989,10.663371481244198],[-63.295925237151266,10.664112475062211],[-63.29849507780506,10.665514694547895],[-63.300136711218926,10.6665391416024],[-63.30085827008783,10.666644758009042],[-63.30146009605002,10.666707499477766],[-63.301795886867424,10.666557699898831],[-63.30206309774596,10.666377193467426],[-63.302801596948456,10.665205807402657],[-63.30303579232982,10.664897878974173],[-63.303250086965974,10.664745765247702],[-63.3044503085915,10.664430625685696],[-63.30491171832914,10.66435855742327],[-63.30522854996727,10.664316812808423],[-63.30574607716626,10.664421805623263],[-63.30644969914245,10.664773316407377],[-63.306938589275745,10.664824888976952],[-63.30750480603278,10.664669947822844],[-63.30800554647915,10.664310128905953],[-63.30832512209449,10.663939509902292],[-63.308808789084196,10.663536679461913],[-63.30920256044891,10.66338614467773],[-63.31054335576103,10.663221376720486],[-63.31412373989774,10.663058890383525],[-63.315521069307366,10.663045018722954],[-63.318590857662954,10.662882957120047],[-63.32182138590869,10.662854425497244],[-63.32289860275273,10.663130359949847],[-63.32355064011604,10.663253029702759],[-63.326263803397595,10.66371999108405],[-63.32930498143007,10.664355012336145],[-63.330941905008814,10.6646758537957],[-63.33259603626094,10.665274273065634],[-63.334131400952145,10.665962960409388],[-63.33498278218602,10.666255381805769],[-63.33538574059382,10.666207927010376],[-63.335953258568594,10.666159930232425],[-63.33630903085253,10.666039911901478],[-63.33625207259331,10.666178482513203],[-63.3364912101637,10.665993401446485],[-63.3367357019893,10.665700163873694],[-63.33688846433125,10.665485632339099],[-63.33721437696437,10.664779508490469],[-63.33739024370965,10.664212632296639],[-63.337448711873876,10.663928111294695],[-63.3373168234358,10.663969489086881],[-63.33704573374432,10.664924759180849],[-63.336827686018715,10.66545403501815],[-63.33652344308558,10.665828174019921],[-63.33609814497895,10.666328836188313],[-63.33536669983687,10.667094311214683],[-63.33539320512452,10.667197317645318],[-63.33580964436696,10.66718123170827],[-63.33646765652692,10.667352113891724],[-63.33697981478767,10.667530747381548],[-63.337377747917685,10.667560564765296],[-63.337793508112284,10.667534635776732],[-63.33821786088443,10.667505592283717],[-63.33854850990045,10.667816219248195],[-63.33887431025545,10.668017198742277],[-63.33940356642587,10.668123975032287],[-63.341041410383596,10.668388663811001],[-63.34177798941906,10.668813364206258],[-63.343213609386964,10.669354935162815],[-63.34511925179244,10.670201853776149],[-63.34695646834365,10.67099177103836],[-63.35001019616183,10.672403344909284],[-63.351805525237936,10.673316006124637],[-63.35198538777664,10.673305051958081],[-63.35208351719278,10.673227685029644],[-63.35224564771947,10.673111762700273],[-63.352352928810376,10.673148937865264],[-63.352415130074476,10.673273460000587],[-63.35264861075565,10.673717169203229],[-63.35280911928258,10.673948212877121],[-63.352988553062474,10.674177098768823],[-63.353272230185325,10.674295372200518],[-63.35439346265282,10.674834131074931],[-63.35495688315039,10.675013551159864],[-63.35522602703061,10.675020170412907],[-63.355434165231046,10.67472588140673],[-63.35553577485443,10.674549163508985],[-63.355772270548016,10.674290090931336],[-63.356223520071765,10.673954570904769],[-63.356589968320634,10.673757948741923],[-63.35692728440927,10.673615913060047],[-63.358610871645396,10.675403192174144],[-63.35914722623363,10.675976109404957],[-63.359440552532845,10.676204378860646],[-63.359718928405414,10.676534162167513],[-63.359767637605145,10.676800189998858],[-63.36003518492009,10.677131887267805],[-63.36072579453055,10.677744479257498],[-63.36101173879132,10.678237706041983],[-63.36123081657857,10.67874667552229],[-63.361542221556576,10.679043152288045],[-63.36185806663751,10.679333350944304],[-63.362075340653945,10.679671987171346],[-63.36217461421603,10.680000477636725],[-63.362198087772995,10.680342370018863],[-63.36236189428203,10.681194938647721],[-63.36260171464576,10.681619418178855],[-63.362685944669536,10.681835219409322],[-63.36284694874924,10.682204861558148],[-63.36294058905071,10.682226103099211],[-63.363004379829974,10.682154347247334]],"type":"LineString"}}]}