{"type":"FeatureCollection","features":[{"type":"Feature","properties":{},"geometry":{"coordinates":[[-63.246375780605106,10.577611338810257],[-63.24560205732537,10.577541391957737],[-63.24518063567642,10.577474575726626],[-63.24471843128664,10.577521347090325],[-63.244446546289666,10.577554755197923],[-63.24435818368593,10.577768567031185],[-63.24427661820512,10.578122692553904],[-63.2438631846661,10.578980072177686],[-63.24367517263923,10.57912140229007],[-63.243719410762864,10.579578006821933],[-63.24383000607337,10.580121582760214],[-63.24408437528571,10.580610800280098],[-63.24413967294025,10.581208731745605],[-63.24405119837253,10.582350233662027],[-63.243918483968855,10.582730733513785],[-63.24381490805882,10.583137989843777],[-63.2438923247759,10.583388031992897],[-63.24414669398827,10.584062057638675],[-63.24412457654425,10.584344711507626],[-63.243604778587965,10.584996992379487],[-63.24266472033605,10.586703785861246],[-63.24227763675208,10.587029923960728],[-63.24216704144226,10.587573486689422],[-63.2415104290252,10.588281298244382],[-63.24099063106888,10.589390160660429],[-63.240837952639026,10.589659419106013],[-63.24097066701064,10.59007252332323],[-63.241003845605135,10.590387786692062],[-63.240871131232794,10.590637822927732],[-63.24046192858631,10.590713920871437],[-63.24026285702921,10.590768276534575],[-63.24039557140084,10.591235734836516],[-63.240683119206636,10.591529254801515],[-63.24089325120285,10.592420684137025],[-63.24091537025886,10.59275144237455],[-63.24061676292284,10.593479802611753],[-63.24028497699274,10.593784191451562],[-63.240472989019594,10.594273387167092],[-63.240583586622776,10.594566902569213],[-63.24084901536604,10.59489303229995],[-63.2412139798889,10.59513219388161],[-63.24108126551657,10.595382226245349],[-63.24066100333917,10.595675742236807],[-63.24021862209992,10.59583880655562],[-63.23989789817365,10.595969256354849],[-63.24014120785506,10.596317126462466],[-63.240495112846304,10.596512803224513],[-63.24104808939606,10.59667586709763],[-63.241578946883294,10.596860672715394],[-63.24265172149677,10.596784576384962],[-63.243175889859,10.596860672802407],[-63.243507675788436,10.597165058282457],[-63.24309847314193,10.597436830776346],[-63.24406064388829,10.59830649919435],[-63.24438137032715,10.598708720915084],[-63.245022768208756,10.59927325013588],[-63.24549416649923,10.599705714630403],[-63.24583985109331,10.600431634428034],[-63.2464683821466,10.600972212905617],[-63.2467040812824,10.601976141823684],[-63.24708119991449,10.602362267456996],[-63.24751566024614,10.603376223815886],[-63.24881986218746,10.604719932770891],[-63.24965266583327,10.605414952328772],[-63.250108350847015,10.605523066339558],[-63.25089400494153,10.606218082461083],[-63.25171109531114,10.606681426739485],[-63.25207250066647,10.607067546435971],[-63.25233962124281,10.608056009458963],[-63.25268531332192,10.608874578957739],[-63.25368025650768,10.610504743175255],[-63.254198794626845,10.61174030904354],[-63.254340214053045,10.613161203608783],[-63.2552358708043,10.614427647558685],[-63.25587982274696,10.615920755161838],[-63.25611552189194,10.616847413616327],[-63.25620980154984,10.61834550551032],[-63.25627264807741,10.620097543791445],[-63.25570697010994,10.622676700924842],[-63.25608408518566,10.624514523906015],[-63.25707987381418,10.62850113987706],[-63.257362712788364,10.629118887052542],[-63.257362712788364,10.62976752024234],[-63.25717415347208,10.630169054382407],[-63.25599565774668,10.630894903219684],[-63.255199479745585,10.630913195891367],[-63.254657506598875,10.631055027346378],[-63.25453620307107,10.631619595200945],[-63.2546590134355,10.632308333718811],[-63.25509307810971,10.636629668427005],[-63.255382045736695,10.639422099807206],[-63.255609906858965,10.640522113148663],[-63.255833509261535,10.640817759436729],[-63.255979671987504,10.64113365623956],[-63.25549788439038,10.642215648629715],[-63.25545618699225,10.643285898876144],[-63.255634820544614,10.64386284623535],[-63.255868497895705,10.644807750697069],[-63.25623329690117,10.646490294715989],[-63.256511373229515,10.648128741634224],[-63.256863031360965,10.649932834446517],[-63.25723548584928,10.653240569585108],[-63.25716977005524,10.653923252816227],[-63.25682314015775,10.654600238949214],[-63.25584086195194,10.656257874569178],[-63.255812261347415,10.656612630978472],[-63.2559140407666,10.657080349852478],[-63.25624320643752,10.657412984734535],[-63.256383808388804,10.65752531543086],[-63.2558429623095,10.658214301704831],[-63.25387178399757,10.660799048205334],[-63.25197279594782,10.66321907638897],[-63.25148017065317,10.663807390177652],[-63.25608103015874,10.667346498134165],[-63.25676777949377,10.666646390028163],[-63.25731527270645,10.66597005913465],[-63.25796832157114,10.666398635819718],[-63.259147836058546,10.66690969594653],[-63.25931771773182,10.66699441377095],[-63.25970054624332,10.667481423027326],[-63.25886712661742,10.668233451806344],[-63.25845172118787,10.66789878149055],[-63.2577184137033,10.668802271055654]],"type":"LineString"}}]}