{"type":"FeatureCollection","features":[{"type":"Feature","properties":{},"geometry":{"coordinates":[[-63.2510475087071,10.664968003811694],[-63.25012609476181,10.664271398549587],[-63.2523106967362,10.661451973865766],[-63.253583764496895,10.659891063496673],[-63.25460124073368,10.658570449980644],[-63.255748585933674,10.657080026586215],[-63.255849022010466,10.65675075012092],[-63.25581750727193,10.65644051671832],[-63.2558452828779,10.656257148218842],[-63.255940749425946,10.655980948388105],[-63.25675707188553,10.654630246282863],[-63.25700282387241,10.654295465199183],[-63.25711638951287,10.654084938303896],[-63.25718738909892,10.653891549296091],[-63.257278767572345,10.653656910592389],[-63.25732745843693,10.653470779493503],[-63.257317566210844,10.65328031697473],[-63.25729360029024,10.652696150370474],[-63.25712377212777,10.651366966418209],[-63.256942231080856,10.65007944688007],[-63.25669245910099,10.64867075674718],[-63.25656762159079,10.648037860896892],[-63.25642924669806,10.64718425652184],[-63.25621940878757,10.646120507652995],[-63.25614978067628,10.645426023348193],[-63.25605487207558,10.644821757138004],[-63.25585653859562,10.643197524351294],[-63.255832579472354,10.642415963882954],[-63.255997891786365,10.641677250923848],[-63.256760734612,10.640179137290048],[-63.256809345877016,10.639915828338573],[-63.25668391564068,10.639209951119199],[-63.25635820118862,10.63627411610645],[-63.25611121037841,10.634627976520136],[-63.25596487776747,10.63310401723885],[-63.25581332952491,10.631727511205327],[-63.25581082315668,10.631558960620069],[-63.25582944998281,10.631417881119873],[-63.255882791641454,10.631194665542495],[-63.25597266059681,10.63104229682041],[-63.2562330394738,10.630829121802932],[-63.25635011486571,10.630744241976743],[-63.256645154799,10.630514989356001],[-63.25734790916634,10.629974106197892],[-63.257387861624935,10.629866597978108],[-63.25749818992699,10.629727769470648],[-63.25766269399654,10.629650850392878],[-63.25840849770353,10.629524196748122],[-63.25998430165973,10.629178390589416],[-63.262105944321874,10.62816158023388],[-63.26419938179244,10.626612212858262],[-63.26588674485468,10.625436003437471],[-63.26815423400011,10.623948192481663],[-63.2693368676707,10.623150137607013],[-63.26989537283289,10.622519668659322],[-63.271907293058234,10.621479686300859],[-63.27208468133577,10.621373708929283],[-63.27221907955855,10.62122266967468],[-63.27237391681551,10.620557705020786],[-63.272476946634185,10.620446138120144],[-63.27263951791531,10.620359095999419],[-63.27373935360245,10.620186577619918],[-63.27483812841882,10.61963292851776],[-63.27503653126253,10.619509838528174],[-63.27520471788243,10.619402622701614],[-63.27593649898826,10.619262645459145],[-63.27732931124443,10.618617066655574],[-63.2812240855892,10.61685420205876],[-63.28136602084082,10.616849795074884],[-63.28203989651344,10.618716407533086],[-63.28211264833149,10.618624859001017],[-63.281417956081256,10.616798957668067],[-63.28130645501986,10.616736035238347],[-63.27624471349458,10.619040941484855],[-63.27588002401997,10.619180489567],[-63.27529525621645,10.619321164605125],[-63.27511667676187,10.619380545965512],[-63.273869046327846,10.620021463885948],[-63.27269540520744,10.620222661240788],[-63.27249661000762,10.620342169553624],[-63.272251819920314,10.620514763308577],[-63.27213009852855,10.621146974457403],[-63.27206116200101,10.621320819649839],[-63.269863077593854,10.622449421423767],[-63.26923493651013,10.623123712536128],[-63.2672866256261,10.624428576730168],[-63.26526331177406,10.625757420442909],[-63.26390113378493,10.624022824507605],[-63.263731342413564,10.623234857224958],[-63.2624838568522,10.621191463488088],[-63.262527271029796,10.621020701674809],[-63.26240792698127,10.62089506730699],[-63.26233606570145,10.620941945359704],[-63.26229600114419,10.621035910166285],[-63.26237706163789,10.621166169645761],[-63.26366419315016,10.623378821811144],[-63.263839794296686,10.624057864408243],[-63.2652411315577,10.625813770070849],[-63.262228805855756,10.628036538340979],[-63.260025550580536,10.629091074669759],[-63.25906981791944,10.629321122531437],[-63.2574810796727,10.629664058679808],[-63.25732281485219,10.62984869077853],[-63.25721088897862,10.62998952948773],[-63.25647372073671,10.63056872923974],[-63.25590061121029,10.630854404670444],[-63.25489269002526,10.630874318026315],[-63.25476261907933,10.630921860981374],[-63.2545797223912,10.631064907325651],[-63.25445660350361,10.631219829762117],[-63.25450052422937,10.631571009440734],[-63.25501444023277,10.636091494208074],[-63.25548952261305,10.640054264333301],[-63.25557040181161,10.640541120362784],[-63.2557112405367,10.640683246822661],[-63.25583527464802,10.640846486200829],[-63.25587224288894,10.64109027927671],[-63.25573771923061,10.641361155325328],[-63.25564304792765,10.641639947563988],[-63.25545392662225,10.642371208805798],[-63.25547342788599,10.642578917264828],[-63.25546091998507,10.642841417071367],[-63.25545578938116,10.64300754184427],[-63.255497675819385,10.643187083354704],[-63.255483811727146,10.643335166284047],[-63.25558751067996,10.643698207211855],[-63.25565559758317,10.643931873180634],[-63.25579444289539,10.644265205376072],[-63.25584260372328,10.644494912520912],[-63.2564575629048,10.647912005678407],[-63.25695069560122,10.651181561316818],[-63.257198599439135,10.653358675323247],[-63.257084680155984,10.653690704566216],[-63.25695465008749,10.654101063754453],[-63.25672990783862,10.654427383629667],[-63.25573045884113,10.656120350533271],[-63.25567877688418,10.656432127940349],[-63.25573770544946,10.656851484177508],[-63.255977071642164,10.657159928838311],[-63.25637898778179,10.65752510664781],[-63.25184460999199,10.663339614395369],[-63.25012526476762,10.665515609597534],[-63.252474132533905,10.667270634837735],[-63.25474932125226,10.66902057065198],[-63.25607533363535,10.667307636712408],[-63.25674455234845,10.666644022615458],[-63.25664878685929,10.666514785625438]],"type":"LineString"}}]}