{"type":"FeatureCollection","features":[{"type":"Feature","properties":{},"geometry":{"coordinates":[[-63.25074664603302,10.664713866920394],[-63.25215963051136,10.662952637299597],[-63.25638754684719,10.657345824049031],[-63.25622597015122,10.65720852151884],[-63.256099528955616,10.657109285086548],[-63.25601507957049,10.657018516418532],[-63.25594888239203,10.656911916031632],[-63.25586689671934,10.656766085859687],[-63.25584815229152,10.656636573653628],[-63.25583769399266,10.656501886671833],[-63.2558506413789,10.656265832419379],[-63.255889125280774,10.656134874292547],[-63.25598141965605,10.655883606451397],[-63.25661551906333,10.65482125851453],[-63.25703693046587,10.654177352244176],[-63.257081837157685,10.654103641185785],[-63.25713987221863,10.654015614551739],[-63.257188895827525,10.653886145029702],[-63.257241687959805,10.653752974419263],[-63.2572809326622,10.65360943544627],[-63.25726892061762,10.65355170720656],[-63.25732084198749,10.653320264935246],[-63.25733086577924,10.652927383099168],[-63.25726787715216,10.652504056631713],[-63.257200098530845,10.651829346624154],[-63.25709928338722,10.65110290238107],[-63.25697545524227,10.65020658528428],[-63.2566993357123,10.648559285885028],[-63.25633097153107,10.646584756932796],[-63.255940052237534,10.643957314530041],[-63.255870731619694,10.643588927902613],[-63.25578826923059,10.642844884443534],[-63.255756391465994,10.642487326923089],[-63.25587416857651,10.642361207402118],[-63.25606680575986,10.642298227801362],[-63.25630760223834,10.642219503282107],[-63.256393239677394,10.64007639709638],[-63.256571519027176,10.640047162331001],[-63.2567275171445,10.640093776057697],[-63.25675199441615,10.640200614886922],[-63.25645177699751,10.640901682871856],[-63.25599016853582,10.641781843026209],[-63.25598130138606,10.64194551896243],[-63.256072403339346,10.64204205932542],[-63.256153016560376,10.642090350515105],[-63.25646327358395,10.642161177829593],[-63.25775342383854,10.642382491176491],[-63.25987534403127,10.642789102575449],[-63.26162191322851,10.643116829186425],[-63.26293440697499,10.643331079667234],[-63.2633586319493,10.64337613086012],[-63.2636583788543,10.643433167962485],[-63.26407726895279,10.643600545345208],[-63.26594224056733,10.644390980842132],[-63.266040449071866,10.644335905430808],[-63.26718198227846,10.641750287990405],[-63.26804775277189,10.639555844431797],[-63.26943855080539,10.63719927860042],[-63.27132708207597,10.634190298141817],[-63.27146237450229,10.633750372041476],[-63.27156964058965,10.632667876230343],[-63.27152024772579,10.632102120127328],[-63.27139083519866,10.630670214913664],[-63.270874933189006,10.626067206080705],[-63.271038945495036,10.62515234372681],[-63.27186384629496,10.624230890382165],[-63.272411112311175,10.624098513628354],[-63.27482737798326,10.623890428130224],[-63.27535160261027,10.62376840293156],[-63.280065368785316,10.620062450323871],[-63.28146224907479,10.619210022909257],[-63.286807230243724,10.617508985353169]],"type":"LineString"}}]}