{"type":"FeatureCollection","features":[{"type":"Feature","properties":{},"geometry":{"coordinates":[[-63.2565521010152,10.667937014680618],[-63.25591901903604,10.668761753864615],[-63.25275970543217,10.66634823318195],[-63.249444274165384,10.66376037843753],[-63.24821084567505,10.665299838386503],[-63.247474324088856,10.66473564256448],[-63.24688239739186,10.665512424891247],[-63.246052334792154,10.666579369183054],[-63.245808040179455,10.666990814947027],[-63.24563478255236,10.667088873775995],[-63.24540759213201,10.667054045727895],[-63.24366700194675,10.666686393092874],[-63.24342166411709,10.667567462638132],[-63.24336042831557,10.667636704660424],[-63.24090695903402,10.666783669452315],[-63.24052420667351,10.666644810641927],[-63.240379419475246,10.666530225104964],[-63.24032186559526,10.66636130939014],[-63.24026487728163,10.666057144579483],[-63.240204731776785,10.665923059901857],[-63.24009175231376,10.665705034128806],[-63.23981486945074,10.665418067472785],[-63.23958021219032,10.66499837422532],[-63.238903349314754,10.663593513003775],[-63.23864368747566,10.663307340013247],[-63.23814321767489,10.66287684686877],[-63.23726086526908,10.662165124949013],[-63.23697975387323,10.661785673147918],[-63.23679895437192,10.661459502207265],[-63.23665189661061,10.661149296804822],[-63.23654315484674,10.660617886751282],[-63.236488203391076,10.660365603474418],[-63.236293441835656,10.659888136717484],[-63.23605607941451,10.659621945871677],[-63.23582078031235,10.659434149356528],[-63.23524742058643,10.658911816639801],[-63.234892836511534,10.658619740200777],[-63.23438625090367,10.658081708142916],[-63.23385036663271,10.657384477410815],[-63.233522056643764,10.65701179337438],[-63.23299440905001,10.656277011893351],[-63.23228772095696,10.655342504138815],[-63.23151506785004,10.654335502839771],[-63.230584400290965,10.653105404409786],[-63.230173874299666,10.652335390104781],[-63.23001996585647,10.651710142576349],[-63.229988073268444,10.651166379653517],[-63.230116240334766,10.650387984228473],[-63.23010558261828,10.65006370261753],[-63.229999740892026,10.649725774023665],[-63.22982329379886,10.649281322829452],[-63.22918160183909,10.647634623554566],[-63.229186256968646,10.64752346790523],[-63.229456718872186,10.64743892866592],[-63.22992677584223,10.647378906006793],[-63.23044536621036,10.64749748831629],[-63.2309233725278,10.647709699220783],[-63.23123918259344,10.647811843174267],[-63.230915931397845,10.647117021180222],[-63.231190841249514,10.646522622185202],[-63.23152876934064,10.646010598622468],[-63.23159300037908,10.64602963938978],[-63.23120271927242,10.646599163944572],[-63.23074527071677,10.6476838436907],[-63.231620118225806,10.648019730970319],[-63.2319437244053,10.64818756342332],[-63.232603436806,10.648509618525694],[-63.23290501596357,10.648570631493769],[-63.23352388575704,10.648709875869812],[-63.23383075006069,10.648683727828015],[-63.23445781994904,10.648645727949685],[-63.23494542693689,10.648533225702266],[-63.23544054511544,10.648457263869602],[-63.235920032698544,10.64845314332976],[-63.236389304159886,10.648440642595915],[-63.2370189689707,10.648566766850138],[-63.237567849483185,10.648672300389137],[-63.23801901967913,10.648682620270407],[-63.23846706789965,10.648653332306893],[-63.238757478978556,10.648624123354054],[-63.239657513171366,10.648368034288879],[-63.24018302459167,10.648296049679061],[-63.240794722388884,10.648312863921618],[-63.241158521040404,10.64838176587898],[-63.241848885465316,10.648402108017734],[-63.2423150120829,10.648322581060796],[-63.24266108373226,10.648200679641022],[-63.24319636619215,10.647820886804581],[-63.243529739087606,10.647363739552375],[-63.243977245436895,10.646568969917055],[-63.24424726735293,10.646135263851164],[-63.244751684016705,10.645675383432433],[-63.24509460853561,10.645494143339235],[-63.24608623307191,10.645273522413476],[-63.24730154202463,10.645126889808338],[-63.24799611693339,10.644969077081925],[-63.24838652765976,10.644707414284184],[-63.24871480094818,10.644183523314467],[-63.24904265709003,10.643554534690537],[-63.2494241109178,10.643126162251264],[-63.249994929681534,10.642794325655316],[-63.25094947049993,10.64252672308642],[-63.25147029179409,10.64239754727248],[-63.25223179665116,10.642211563641041],[-63.25271940198837,10.642053130586945],[-63.25305200336577,10.641985425920069],[-63.25346286729757,10.641876750456007],[-63.25409545086103,10.641879254166312],[-63.25450471581658,10.641938449066132],[-63.25520655848645,10.642071371213532],[-63.25535756977875,10.64213491483487],[-63.255441398827074,10.642313070412769],[-63.255422428639676,10.642566887750135],[-63.255432570060265,10.643056842401919],[-63.255475668147156,10.643246795373372],[-63.2555871465009,10.643327345605385],[-63.255709215596625,10.643338252541653],[-63.255791255821606,10.643247502111862],[-63.255805727766955,10.6429492216661],[-63.255826158391486,10.642334334848229],[-63.25594021931484,10.641822557514388],[-63.25622002787668,10.64132595427131],[-63.25644808017702,10.640824363425523],[-63.256577539132536,10.640528399730442],[-63.256637988908,10.64033683480912],[-63.2567144862458,10.64017940014665],[-63.256627153471825,10.640049538484035],[-63.256531207019165,10.64006673906907],[-63.25643194290568,10.640125294664458],[-63.256328890308524,10.640231940201858],[-63.25622521892882,10.640419306424647],[-63.256083276351006,10.640640700098984],[-63.255765307870746,10.641279821779534],[-63.255609597570384,10.641733693921026],[-63.25550572986687,10.642147366071868],[-63.255436020612024,10.642824504524384],[-63.2554238120196,10.643124772874998],[-63.255540114826275,10.643618407429614],[-63.25560840253216,10.643841145586421],[-63.25568858365048,10.64409090864092],[-63.25585787047558,10.644496882189543],[-63.255915964523794,10.644759735187549],[-63.255967801524875,10.645199101968814],[-63.25601340253594,10.645668857216364],[-63.256082334201494,10.646060164961469],[-63.2561844442057,10.646813062093685],[-63.25618378529104,10.647099279709934],[-63.25633220360092,10.647576986020567],[-63.2565153180104,10.648346659871223],[-63.25660415643745,10.64881639038714],[-63.25678113785217,10.64975436859973],[-63.2569049471805,10.65090994722712],[-63.256953216244426,10.651320721175622],[-63.25698618956905,10.65161685713555],[-63.25713906855627,10.652694600435083],[-63.25716690557546,10.653209844597328],[-63.25710798412224,10.653566952789006],[-63.25700845145602,10.653835963409279],[-63.256887778051066,10.654089830241915],[-63.256791375004966,10.654311389986205],[-63.25640313872694,10.6549537441703],[-63.25622140845313,10.655226985731431],[-63.25590835114812,10.655775199911986],[-63.25569836847721,10.656055101971475],[-63.25547914870346,10.656223429443088],[-63.25517883771377,10.656469003693886],[-63.25408472038886,10.65781277022684],[-63.252791092502775,10.65957580330408],[-63.252115593916486,10.660387276351628],[-63.25163256418166,10.660896456180382],[-63.251095040389316,10.661659377590752],[-63.25026307216787,10.662703384398853],[-63.25000928214209,10.663041672924962],[-63.249717009819804,10.66339415718761],[-63.2495471078675,10.663657723280338],[-63.24885790609679,10.664539664084415],[-63.25076573269608,10.666011468846577],[-63.2521822025808,10.664390032376502],[-63.25256790862821,10.664657030327092],[-63.25317109677064,10.665101818320068],[-63.25349956528841,10.665363233888357],[-63.25412208108122,10.665836736939838],[-63.25501020631975,10.666501623176757],[-63.25572744470392,10.667023423912255],[-63.256422535178785,10.667581365666834],[-63.25671002605371,10.667805324640753],[-63.25660784584355,10.667885652496878]],"type":"LineString"}}]}