{"type":"FeatureCollection","features":[{"type":"Feature","properties":{},"geometry":{"coordinates":[[-63.25771077958372,10.668791866830247],[-63.257197590923525,10.669424361020745],[-63.25683771740708,10.669523733305098],[-63.25588518490119,10.668776323829789],[-63.25537807943931,10.66946480493516],[-63.25550434644849,10.669600202377978],[-63.255608666114256,10.669699538605457],[-63.25567177314913,10.6699356881918],[-63.256947880408035,10.670266242513918],[-63.257984024555,10.670503281506342],[-63.258121763839156,10.67031461394933],[-63.258100118729516,10.670131170974315],[-63.25791644014953,10.669697550479114],[-63.257983202219336,10.669318070158354],[-63.258979312447224,10.66828312704503],[-63.26020684486194,10.667021841748337],[-63.26129919320523,10.665913610102422],[-63.26159334675596,10.665468201538147],[-63.261669173505595,10.665102627588581],[-63.261686161604985,10.664671456890304],[-63.26159429838283,10.664290680953386],[-63.26119495013232,10.66251704794233],[-63.26083295077761,10.661183526594996],[-63.2606329507973,10.660827884815888],[-63.260430806081004,10.6605674043942],[-63.26012105887166,10.660266268132062],[-63.25980987041265,10.660022097510321],[-63.25901072880603,10.659385783222007],[-63.257380913298064,10.658146376374532],[-63.25606265857674,10.657112145242749],[-63.2558915214114,10.656880797682277],[-63.25583227981454,10.656690389324794],[-63.25580203606715,10.656469008083107],[-63.25586312487138,10.65624033854138],[-63.255994375576535,10.655995802903078],[-63.25687716658997,10.654505030570391],[-63.257176295040566,10.653971671878764],[-63.2573006493473,10.653480457073371],[-63.25733540430166,10.653248565579077],[-63.257222056212484,10.652314524217758],[-63.257154410317455,10.651366209353455],[-63.25698029204031,10.650084695398562],[-63.25672700047366,10.648673245176894],[-63.256478024706595,10.647466290235357],[-63.256288978368175,10.646097214510391],[-63.25604734207657,10.64469030218514],[-63.255866492352396,10.643433024213692],[-63.255785846251655,10.642622933531982],[-63.25583959140771,10.642206933649732],[-63.25620357166788,10.641389681353985],[-63.25672979601933,10.640363693056102],[-63.25681330813356,10.64003496814928],[-63.256816394771946,10.639826554773691],[-63.25678238766753,10.639657014039727],[-63.25668640672008,10.63932747657688],[-63.256643453258334,10.639066102750306],[-63.256434717015296,10.637241321182117],[-63.256207378207506,10.635345439357977],[-63.25601444328154,10.633657392394426],[-63.25579499336898,10.63176586370082],[-63.255781904853635,10.631495357254394],[-63.25590607765727,10.631196762146814],[-63.25601805246646,10.63101122699365],[-63.25643146283328,10.630700700681444],[-63.25691132711964,10.630391482397158],[-63.257152443752744,10.630206002433297],[-63.257298909272876,10.630026506325237],[-63.25738839308225,10.629824405879006],[-63.25744375007366,10.629542431452265],[-63.25740684951961,10.629253010369425],[-63.257312165772774,10.628919230256457],[-63.25714178746651,10.628580423387362],[-63.25694383202263,10.627992574046274],[-63.25685070076503,10.627640011665079],[-63.25661336322233,10.626737358295927],[-63.25651133327206,10.626260653075548],[-63.25630438946311,10.625414940801633],[-63.256035457934686,10.624265199781618],[-63.25583013849537,10.623430100059522],[-63.25573937268223,10.623004139696164],[-63.25571785530903,10.622632421149262],[-63.255782080438934,10.6221873470855],[-63.25603125157359,10.621003960790503],[-63.25629016391615,10.619766316659152],[-63.25627498238454,10.619268410232408],[-63.25622533675762,10.61846746957778],[-63.25618977447667,10.617834069050247],[-63.25615372373578,10.61724471520526],[-63.25609015459165,10.6164836824141],[-63.255649602074456,10.615376284335909],[-63.255243707989024,10.614383102369274],[-63.25448055428346,10.613339212383266],[-63.25434131897772,10.613091313596385],[-63.25425948218144,10.611890005558848],[-63.254152920986414,10.611518671629668],[-63.253884470707405,10.61098531571092],[-63.25319306524459,10.609737426753213],[-63.25234467506252,10.608261036396371],[-63.252097044720074,10.606963908823403],[-63.251073559837636,10.606276226351355],[-63.250329066355576,10.605592755420915],[-63.249367644484465,10.605285536527617],[-63.24741893453566,10.60306882753872],[-63.24718430799902,10.602374483827433],[-63.24666701908447,10.60190683654406],[-63.246413411817315,10.600974250132808],[-63.245701465370814,10.600210523262177],[-63.2454573834505,10.599645085750225],[-63.2447913271795,10.599083550087016],[-63.244116936640864,10.598499777759244],[-63.24376599850706,10.598024799225996],[-63.24365029808523,10.597446047753635],[-63.24378223479293,10.597275192268825],[-63.24390046464569,10.596741843884928],[-63.24382643560983,10.596435895716937],[-63.24365648173976,10.596477661187166],[-63.243300381042005,10.596716129686314],[-63.24291771951306,10.596833696853594],[-63.24187346022198,10.596857744344803],[-63.241131050877044,10.596719098599408],[-63.240489888424634,10.59652094832343],[-63.240032558032425,10.59617698657739],[-63.23997837042661,10.595986694641724],[-63.24027683214244,10.595795506188722],[-63.240933081970184,10.595489243892573],[-63.241184705386516,10.595228725128237],[-63.2410895911501,10.595025704289228],[-63.24084755300767,10.59479659634458],[-63.24046452660777,10.593983261472673],[-63.24044308612534,10.59369422020471],[-63.24065338677626,10.593466161910015],[-63.24077416205951,10.593154820452227],[-63.240881708536094,10.592683948623161],[-63.24086632110928,10.592372834543298],[-63.24078862454148,10.592032930398602],[-63.240835610203376,10.591752193457253],[-63.2407254087737,10.591455862773344],[-63.240437184520616,10.591128689463758],[-63.24034402200512,10.590812840655872],[-63.240487602558574,10.590670508240322],[-63.24074439942683,10.590643590958592],[-63.2409857747557,10.590440271881334],[-63.24106770764803,10.590137536061363],[-63.240830610703526,10.589834098543065],[-63.24092605552815,10.58949292928368],[-63.24155935092024,10.588265692042128],[-63.2421266650928,10.58752604142525],[-63.24231479854883,10.586930163016888],[-63.24273878790969,10.586582139535196],[-63.2433478035357,10.585478004241935],[-63.243843251097005,10.584529545290067],[-63.244040581794266,10.58423764175221],[-63.24406737291312,10.583716805427443],[-63.24373840580061,10.583216113298803],[-63.24394247971047,10.582307939450871],[-63.24412914140497,10.581040263561178],[-63.24387446390713,10.579845666714661],[-63.24369794601064,10.579385140347824],[-63.24375094072121,10.578940176123439],[-63.24413173535778,10.578239025770927],[-63.24433453096371,10.577674477530834],[-63.24470523549479,10.577547105753098],[-63.245227658668554,10.577476510102173],[-63.245725965468026,10.577609439817806],[-63.246206566700934,10.577611734599003],[-63.24643379941318,10.577640881226301]],"type":"LineString"}}]}