{"type":"FeatureCollection","features":[{"type":"Feature","properties":{},"geometry":{"coordinates":[[-63.257188952722785,10.667170599388555],[-63.25596461127593,10.668758269876832],[-63.251354966942685,10.665263454857183],[-63.25717989272226,10.65804098808654],[-63.25716427078018,10.657913644518985],[-63.25602506510515,10.657030193407422],[-63.255858480867715,10.656782742002363],[-63.25576943380253,10.656508168195629],[-63.25585855479119,10.656135751144674],[-63.256290565449575,10.655399446695483],[-63.25673880012066,10.654710851364612],[-63.25713340934752,10.654022680656837],[-63.25729107182954,10.653532392305152],[-63.2573517041979,10.652926316578643],[-63.257275140816716,10.652445575599828],[-63.25701958497379,10.650493477523568],[-63.256702366982765,10.648524503640544],[-63.25634628682843,10.646596241763277],[-63.25616708865584,10.645540985324601],[-63.25669942322847,10.645465842535785],[-63.26036021799301,10.64604508211842],[-63.260435016021106,10.646057255812948],[-63.2609443794874,10.643082248117182],[-63.25621336077448,10.642209584664585],[-63.25615397816124,10.642019396590428],[-63.256001419956064,10.641738430405738],[-63.25659140312037,10.640540303282023],[-63.25676701345266,10.640154333760961],[-63.25663990798817,10.64007867258914],[-63.25655998057927,10.640033271979192],[-63.2564590379223,10.640093736427872],[-63.25636975864033,10.640157604610934],[-63.25621527059171,10.64019245213072],[-63.256065152072466,10.640228623037359],[-63.2559074974108,10.640180095526247],[-63.25581151777271,10.640168991923332],[-63.25566931458515,10.640142691121682],[-63.25553439340899,10.640104319666534],[-63.25542599870727,10.640162351785278],[-63.25529458856225,10.640118801419149],[-63.25481078273927,10.63980093623502],[-63.25395450865561,10.639191698345911],[-63.253548032707286,10.639030163072377],[-63.253104897311886,10.638934129420917],[-63.25209647260547,10.638357023691839],[-63.25184951934787,10.638182203990155],[-63.25159141358991,10.63790187729461],[-63.25112234072549,10.637463149651339],[-63.25046071784071,10.637056913217691],[-63.24948001919367,10.636476654074613],[-63.24888206009685,10.636066915884712],[-63.24810317114917,10.63561773664047],[-63.247784447828366,10.635384871285282],[-63.24918519698072,10.632803471842223],[-63.24651256084982,10.631275966795954],[-63.24566986670541,10.630792615371107],[-63.244787901099585,10.63030538291622],[-63.24433730011651,10.63118327433503],[-63.24636961166708,10.632374768132891],[-63.2466147862302,10.632901208984364],[-63.24701374523205,10.633629958761091],[-63.24723039925608,10.634692773570862],[-63.247592751023575,10.635234394236917]],"type":"LineString"}}]}