{"type":"FeatureCollection","features":[{"type":"Feature","properties":{},"geometry":{"coordinates":[[-63.25775544041055,10.666567427565425],[-63.2570893178123,10.66724701482353],[-63.25647737176806,10.668062961900674],[-63.2559018021624,10.668740695260851],[-63.25474799447696,10.667866992286136],[-63.253917019932544,10.667201359759645],[-63.25276314814724,10.666360360499397],[-63.25198866454835,10.665738421883844],[-63.251340227322274,10.665251236112908],[-63.253091240248125,10.663218684097899],[-63.25402189596886,10.66202640047014],[-63.25505986378819,10.6607101832615],[-63.25631298455241,10.659167237193373],[-63.257210282171656,10.658015783695191],[-63.256194967213276,10.657215149206678],[-63.25596025179219,10.656973525656895],[-63.25585734729623,10.65671742139493],[-63.255793256796224,10.656398490058237],[-63.25587375659909,10.65614292281279],[-63.25669651680603,10.654668863006819],[-63.25712484727052,10.654044459646855],[-63.25727704231393,10.653658318465943],[-63.25729849864936,10.653320089792444],[-63.25727677992339,10.652490899205986],[-63.257155187295155,10.65134823611757],[-63.256926007246676,10.649776301789672],[-63.25644958154325,10.647042807314975],[-63.256152408799736,10.645274353788423],[-63.2559044294851,10.643701524488677],[-63.25580002496477,10.642832146106102],[-63.255859797200486,10.642144521908605],[-63.255939934362985,10.641872699176588],[-63.25623973581541,10.641255377425793],[-63.25663473521007,10.640487114046266],[-63.256787758317586,10.63996837938295],[-63.25681017564574,10.639675224086574],[-63.25673386750577,10.639322385536772],[-63.25665365516866,10.638789230814439],[-63.25649025968616,10.637318355040009],[-63.25637598369515,10.636548044071361],[-63.25621851563035,10.635097224359072],[-63.25592654654777,10.63261140529535],[-63.25577148141758,10.631544061479559],[-63.25584560501484,10.631243347523025],[-63.25595585654068,10.631014840790101],[-63.25640358360721,10.630689316834719],[-63.2569028402753,10.630362260231934],[-63.2572781358475,10.630041896855715],[-63.2571618202289,10.629960294113118],[-63.256517866182406,10.629731745709137],[-63.25607429148863,10.629629550935874],[-63.255676578379465,10.62959918108136],[-63.25493727162953,10.629655955392977],[-63.254562759460995,10.629618505292157],[-63.254331386416894,10.629543720768211],[-63.25386808122229,10.629600082042217],[-63.25328965739914,10.629724429649542],[-63.25265586815294,10.630060227351109],[-63.252478058655896,10.630317574628663],[-63.25207353324731,10.6306469978732],[-63.25176632480132,10.630885952384162],[-63.25160848900424,10.630958761415215],[-63.25147793993966,10.63091820303518],[-63.25172330203475,10.629534279005384],[-63.25117973937151,10.629531360984714],[-63.25115620762142,10.629277041345844],[-63.25115667012895,10.629029017959013],[-63.25088114848921,10.629036392419195],[-63.25097157884049,10.62701120970604],[-63.24935598671537,10.626780266632963],[-63.249130096823265,10.626860055774003],[-63.249038286247156,10.627110243412943],[-63.24894413378506,10.627356807604059],[-63.24871136632075,10.627408713762193],[-63.24807762999356,10.626870638840913],[-63.247733222951155,10.6272681857008],[-63.247385240641776,10.62758777217391],[-63.247003055567035,10.627868285939854],[-63.24669546199128,10.62812922854637],[-63.246516582758645,10.628537539110809],[-63.24652255047339,10.628817546947246],[-63.24651811779164,10.629142626146816],[-63.246316550530636,10.629539343631421],[-63.24617770228588,10.629903040855652],[-63.24791487678398,10.63091034989776],[-63.249690256245245,10.631987325887465],[-63.25024513143275,10.63110690859827],[-63.25112883786544,10.631606986131814],[-63.25133102394332,10.631208713032152]],"type":"LineString"}}]}