{"type":"FeatureCollection","features":[{"type":"Feature","properties":{},"geometry":{"coordinates":[[-63.257426009506446,10.666926038342538],[-63.257266224118254,10.667075667568866],[-63.255470459318445,10.665652003778405],[-63.254116893248096,10.66456051269276],[-63.252787433062565,10.66355046706181],[-63.25727196824792,10.65798849416042],[-63.25682116531328,10.65762187504717],[-63.2563578969159,10.65730309728606],[-63.25606992065032,10.657081260677955],[-63.25589575054997,10.656819437519573],[-63.255831681992916,10.656607567815882],[-63.255824819940315,10.656459975219548],[-63.25587029218393,10.656238586445909],[-63.25595689221437,10.65599508539195],[-63.25610519280282,10.655785304457027],[-63.256575297329206,10.654963008000166],[-63.25689916607455,10.654444372469627],[-63.25715622100313,10.65393554807035],[-63.25732850687504,10.653619236306724],[-63.25737794100749,10.653283106231783],[-63.25716031348129,10.651684997648374],[-63.25705399473652,10.650721819317653],[-63.25688915252542,10.649490292336623],[-63.25647888315518,10.647193555431699],[-63.256057579621384,10.644782933268843],[-63.25577963853857,10.642441557813811],[-63.25628873435532,10.641116223796871],[-63.25681119343629,10.640011815164755],[-63.25679179193891,10.63963055716998],[-63.25653679451405,10.638018880902791],[-63.25620268567614,10.635037486792527],[-63.255774233091785,10.631486008158433],[-63.25583748422899,10.631226543428014],[-63.25592663472614,10.631052020097982],[-63.256336373752006,10.630726490162857],[-63.25733105539152,10.629984884848554],[-63.257410610944845,10.629702924480398],[-63.25744850656467,10.629358889385543],[-63.25739206485838,10.629089285081633],[-63.257233623791095,10.628720478764265],[-63.257092793915135,10.628447768270178],[-63.25697579435975,10.628128194380935],[-63.256795977787164,10.627257178124452],[-63.256135020272794,10.624690294106898],[-63.25571202834749,10.622794357380997],[-63.25599015336111,10.621291998478696],[-63.25634178377837,10.61946983398181],[-63.256213892124705,10.617835548744864],[-63.25611199647945,10.616360185616742],[-63.25527894251728,10.614306848996094],[-63.25448964220085,10.613250432197376],[-63.25428724967746,10.611988953285575],[-63.25423077282689,10.61148797201416],[-63.25376212716559,10.610638278069302],[-63.25316565396014,10.609449064848931],[-63.25268589640592,10.608869226828489],[-63.2521115866583,10.606943115372488],[-63.250979495057635,10.606268412857915],[-63.250193967629414,10.605479767182032],[-63.24940509864423,10.605361456800779],[-63.24808137911022,10.603834851895755],[-63.24757150079344,10.603200803494104],[-63.247539558572015,10.602640891756025],[-63.24676730143743,10.601874929502557],[-63.24653605846994,10.600990702462553],[-63.243359794424606,10.597550949109674],[-63.24286799368463,10.59728427697614],[-63.24232997658264,10.59733191324392],[-63.242343133155956,10.59747924537757],[-63.24302904020365,10.597521072748819],[-63.24365265920491,10.598016109343419],[-63.24511448527329,10.59964846186476],[-63.24641526230755,10.601044012223994],[-63.24663608163223,10.601892092970388],[-63.247403269884245,10.602649960399475],[-63.2474765474237,10.603276438033419],[-63.249354543308215,10.605513484240745],[-63.250181896032245,10.605723751799374],[-63.25099922121154,10.606378599323122],[-63.251927863373695,10.606989683577936],[-63.25250954543833,10.60882114177275],[-63.25363354005104,10.610649298261052],[-63.25414957226647,10.611727963526405],[-63.254328515355425,10.613208504677488],[-63.25525011340632,10.61445725910879],[-63.25603242884441,10.616469420962687],[-63.25616006365759,10.618361088015035],[-63.2562031347685,10.619850632182377],[-63.25579926421304,10.621649910129491],[-63.2556115653224,10.622778300310188],[-63.25690618588372,10.628319164314078],[-63.2570628188208,10.628645144719556],[-63.257316127134516,10.629083245769337],[-63.257374083395064,10.629399485882104],[-63.257305883377725,10.629744861511995],[-63.2572245268165,10.629942920471052],[-63.25690093309278,10.630267956802726],[-63.25655935295909,10.630518884698617],[-63.25585029565063,10.630841669095972],[-63.25483471672234,10.630851406191155],[-63.25459930793694,10.631001913497272],[-63.25448938906851,10.631157413799613],[-63.25447573205078,10.631309476804233],[-63.25468843280642,10.633854364805401],[-63.25506814700529,10.636303866498878],[-63.25552879429166,10.6405137357891],[-63.255911342605344,10.640901738003151],[-63.25550271404059,10.642171548193573],[-63.25550999780623,10.643359156172494],[-63.25564230395109,10.643876411822788],[-63.25586572031206,10.644340191975331],[-63.25610736538532,10.64616825464502],[-63.25658186826347,10.64887089948229],[-63.25698803935778,10.650897145325956],[-63.257202016350305,10.65308466688144],[-63.25712316796249,10.653732518616948],[-63.256744780716076,10.654500057403737],[-63.2558767930696,10.65586817925184],[-63.25561981527839,10.656165320695095],[-63.25519096643548,10.656506491514335],[-63.25114715876842,10.661575813210732],[-63.25081905133497,10.66199316888354],[-63.24882612501332,10.6645522898513],[-63.254715986039216,10.669008990646844],[-63.257367853596946,10.665957901704203],[-63.257880403202805,10.666384223878993],[-63.25747587128414,10.666867108622057]],"type":"LineString"}}]}