{"type":"FeatureCollection","features":[{"type":"Feature","properties":{},"geometry":{"coordinates":[[-63.24997398450752,10.66542267602128],[-63.250769356119946,10.665994926433413],[-63.25258041104543,10.663828305201264],[-63.2547169655884,10.661124255208847],[-63.25724838060097,10.658010425770854],[-63.25602895814632,10.65701591521399],[-63.25592984907267,10.656889820779284],[-63.255854110327974,10.656671566361112],[-63.25582368425998,10.65651841415037],[-63.255826380626914,10.65634299635505],[-63.255861057295675,10.656191049544105],[-63.25667982552065,10.654745550379346],[-63.257121336867556,10.654041256469881],[-63.257219783395925,10.653843516000848],[-63.25728652466758,10.653564520515275],[-63.25732490611503,10.653297389927175],[-63.257140727126355,10.65147966273733],[-63.25687261912587,10.649721130724586],[-63.25651469173479,10.647636078496532],[-63.256120997413845,10.645109719773984],[-63.255864429770114,10.643368163491814],[-63.25580811400498,10.64255924946491],[-63.25577792590586,10.642364517911261],[-63.255936839556185,10.641945502289389],[-63.25679693017571,10.64008307484643],[-63.256619760592386,10.638703990925777],[-63.25632910691267,10.636531146590343],[-63.25606756850365,10.634145995453437],[-63.25576282011971,10.631571568686383],[-63.25581178115978,10.631294948898116],[-63.255918193978545,10.631123014285464],[-63.25607405420641,10.630941776720348],[-63.256981507812355,10.630261634928388],[-63.257197210196836,10.630119808695355],[-63.257334596470415,10.62991435478844],[-63.25745699753054,10.629666410989643],[-63.25747923883682,10.629328110200063],[-63.257358807772576,10.628936434005595],[-63.257087863563044,10.628530821765068],[-63.25663998763331,10.626816250465012],[-63.25610316943029,10.624529229601166],[-63.255767835836664,10.623224414411808],[-63.25570157703959,10.62274870997517],[-63.25624699687681,10.620102461174213],[-63.256312124728694,10.619433370161858],[-63.25618463330078,10.617762106394125],[-63.25606198304024,10.616335913965628],[-63.2552371451373,10.614357380122684],[-63.2544899732939,10.613329607863818],[-63.25423600157171,10.611591471893277],[-63.25353746909752,10.610379711102837],[-63.2529186385692,10.609102395876235],[-63.252641188885335,10.608811848912012],[-63.25244375943029,10.60851845396158],[-63.25214165845826,10.607026439638474],[-63.251142114524086,10.606406499552023],[-63.25029519828132,10.605585651238911],[-63.2498687547059,10.60529889616366],[-63.249371978667554,10.605178896833849],[-63.24901223187466,10.604915792851202],[-63.248128697222086,10.603893420535925],[-63.24746051341168,10.603098799791269],[-63.247182835595325,10.60242317353125],[-63.24700305526801,10.602132052265404],[-63.24670919643309,10.60188677331017],[-63.24646749131935,10.600954893569181],[-63.245889068002725,10.600383479109084],[-63.24554728147784,10.599643138456173],[-63.244739730424186,10.599024847491961],[-63.24347746455348,10.597683884658267],[-63.24276343324007,10.597322740588353],[-63.242145660139315,10.597323526245006],[-63.24212742925951,10.597520933273401],[-63.24276318580114,10.597479473664336],[-63.2435089193942,10.597903827182407],[-63.2441207303617,10.59857117181457],[-63.24512358763501,10.59963569082906],[-63.245732743924904,10.600393365453115],[-63.246274689605016,10.600942655324744],[-63.24656466711053,10.601818325359531],[-63.247087497116354,10.602345372070118],[-63.24737837643784,10.603063459805028],[-63.2483973598476,10.604298241578192],[-63.24896625816385,10.604936861395487],[-63.24933000953445,10.605247734083889],[-63.24978245841399,10.60537420084556],[-63.250050763780536,10.60548355976644],[-63.2510184134087,10.606350357961176],[-63.25207681042515,10.60704746739043],[-63.25244864480237,10.608544007775194],[-63.2527709771074,10.608995419347153],[-63.25403772657381,10.61143912267633],[-63.25423582384683,10.612107621743704],[-63.25436368160719,10.61329751909949],[-63.25494113369027,10.613991955516568],[-63.25530924110677,10.614662119319902],[-63.25574951645537,10.615794905877934],[-63.255989635725896,10.616537958222565],[-63.25616828663364,10.618761257645303],[-63.256210592038656,10.619560288797885],[-63.25589265958824,10.621327563874118],[-63.255638781303176,10.622733816113907],[-63.25618732641506,10.625380603895437],[-63.256780030583684,10.627497200135622],[-63.25708963797558,10.628677537302494],[-63.25728280709271,10.628913909936173],[-63.257343256301,10.629183163320263],[-63.257433955907516,10.629395858800407],[-63.257379014039856,10.629658170868993],[-63.25727504104904,10.629897101401767],[-63.257107362802614,10.630062147144827],[-63.25666512931264,10.63039164733597],[-63.25622965722488,10.630660257905589],[-63.25595745600583,10.630786908696237],[-63.25536492446747,10.630859265073013],[-63.25511506078577,10.630817966070794],[-63.25475771877713,10.630881118441053],[-63.2545216272261,10.631047886245696],[-63.25447960681272,10.63129346103102],[-63.25448601617468,10.631667459118447],[-63.255028787744536,10.636580901878446],[-63.25552167792357,10.6404392866189],[-63.25589857813067,10.64091190809286],[-63.25548113143162,10.642512543126472],[-63.2554609871207,10.643204386627758],[-63.25563266933783,10.643833484402649],[-63.25577149781704,10.644227107116293],[-63.25593967467856,10.644721730784056],[-63.25634021358651,10.647406208511342],[-63.25694110173363,10.651308958604076],[-63.257168643070784,10.653325396736761],[-63.25706552073855,10.653789094848008],[-63.256928342087576,10.654227394840802],[-63.255669350844016,10.65608379899409],[-63.25185256251447,10.660766216727026],[-63.24884257260135,10.66461472668955],[-63.249926214653286,10.665383266330508]],"type":"LineString"}}]}