{"type":"FeatureCollection","features":[{"type":"Feature","properties":{},"geometry":{"coordinates":[[-63.25677968419434,10.667649371707242],[-63.25589592748588,10.668739839272675],[-63.25138409505766,10.665293400271551],[-63.25252337406623,10.663969245130843],[-63.253619131113,10.662561290263525],[-63.25630811690672,10.659177567034817],[-63.257179411921555,10.65806145526183],[-63.25724855882784,10.657967027394037],[-63.25609524488547,10.657133893352153],[-63.25592180951081,10.65687761987455],[-63.25581367624217,10.65662291185572],[-63.25582436816602,10.656245210146622],[-63.25594069818557,10.656061612579933],[-63.256061576655966,10.655802913348992],[-63.25625365821833,10.65548472355293],[-63.25657139508746,10.654940459972892],[-63.25678411865256,10.65453269154257],[-63.25698072088656,10.654368034146472],[-63.25715512245765,10.653984773398108],[-63.25729187496296,10.653704904456603],[-63.25733090436347,10.653386921623607],[-63.257266696310694,10.652386257337412],[-63.25699978403274,10.650357563725464],[-63.256714708898855,10.64862233965448],[-63.25630619090262,10.646350683580152],[-63.256045241270485,10.644517688648065],[-63.255857004054576,10.643239936101494],[-63.255834242453005,10.642477791811572],[-63.25577100510117,10.642216390455303],[-63.255854234490286,10.642061075700255],[-63.256005323273456,10.641713180186528],[-63.256757152462626,10.640281215338263],[-63.25677922709127,10.640003984430749],[-63.256756140685994,10.639556062687547],[-63.25669904013239,10.63913577016038],[-63.25646907498698,10.637475060359876],[-63.25598859158124,10.633492577889768],[-63.25577525871515,10.631476335870474],[-63.255833101156014,10.631230758398786],[-63.25598276575718,10.631084358043935],[-63.25619053825325,10.63089659913004],[-63.25679760425189,10.630414277711495],[-63.25722527148591,10.630109899362722],[-63.25737539614673,10.62989196279787],[-63.25753073738257,10.629658203980668],[-63.25917187503261,10.629326131797981],[-63.26006643366719,10.629179543576242],[-63.26117639397559,10.630448836884113],[-63.26148882495984,10.63068820827182],[-63.262007583908215,10.6310247613836],[-63.262361779627824,10.631265740946375],[-63.262300505770696,10.633138443549143],[-63.262337385973595,10.634354948476258],[-63.26667429515955,10.634349469089699],[-63.266722601685885,10.634240722797102],[-63.26671146402589,10.631549605101227],[-63.266608609505695,10.631507771360475],[-63.26417414716809,10.631498461084448],[-63.26415285523521,10.631260899217935],[-63.262753457632115,10.631214438549577]],"type":"LineString"}}]}