{"type":"FeatureCollection","features":[{"type":"Feature","properties":{},"geometry":{"coordinates":[[-63.26300242435738,10.631227476858413],[-63.26251037068603,10.631213092144378],[-63.26238263959452,10.631222349322073],[-63.2613623714785,10.630629223686157],[-63.26001599299269,10.62911944141456],[-63.25863467937181,10.629413992890363],[-63.257601009747304,10.629610257871931],[-63.25749724119312,10.629635157495827],[-63.257360468508324,10.62976001639231],[-63.25729424287688,10.629935119454842],[-63.257150524475065,10.630054101166095],[-63.256878307380745,10.630304279493473],[-63.25644063340977,10.630575934374363],[-63.25620327952953,10.630663997214967],[-63.255937308166295,10.630806879495594],[-63.254874805423285,10.630833488142073],[-63.25469437680084,10.63086563943277],[-63.25460702967773,10.630945469650726],[-63.25451356061666,10.631089267001713],[-63.254455456629714,10.631215044433574],[-63.254461300838955,10.63131245207893],[-63.254583947068895,10.632540770109188],[-63.254769265736826,10.634091193780634],[-63.25490186700458,10.635412021840537],[-63.25502845204359,10.636465343758047],[-63.255209059813566,10.637867928615464],[-63.25528352455828,10.638883068473177],[-63.25541264614732,10.64001059129177],[-63.25554375968699,10.640572612285268],[-63.25568067159645,10.640701200490327],[-63.255839913931,10.640820493032138],[-63.25587318854947,10.640936638082309],[-63.25584461312977,10.641070381940324],[-63.25554710442569,10.641916553929391],[-63.25549569909924,10.642203137284582],[-63.25543019526788,10.642650376557029],[-63.25543851050148,10.643154091889556],[-63.25549000800568,10.643564722863161],[-63.25556445443655,10.643730544841858],[-63.25573012217926,10.64409743632062],[-63.25581837637941,10.64427973089282],[-63.255896782487696,10.644600267416095],[-63.2558891563519,10.644794148656388],[-63.25596897379883,10.645184851186897],[-63.256056164821885,10.64581526194894],[-63.256281588080725,10.647239243346704],[-63.2566021933534,10.648730495496437],[-63.256799069597164,10.649951779253556],[-63.25694376564249,10.651128198463155],[-63.25712456676514,10.652715486706569],[-63.25717877780298,10.653359919907885],[-63.257088190589016,10.653775947216403],[-63.25646651438895,10.654850921112313],[-63.25575953047317,10.655996970822684],[-63.25569860792382,10.656214736966291],[-63.25566163786361,10.656419208633153],[-63.25566769695429,10.656588340342935],[-63.255709690857046,10.656702923318718],[-63.25574787656802,10.656820346962277],[-63.255877429212234,10.657079742178851],[-63.25635491089669,10.65750303203194],[-63.25630794946183,10.657633573238954],[-63.255066766572156,10.659154007145702],[-63.25361127316074,10.661004009983728],[-63.252101908084455,10.66301724381185],[-63.25012819830398,10.665522969498866],[-63.25078405724622,10.666021728055057],[-63.25128851696181,10.665392707766827],[-63.25218728106195,10.664392879681301],[-63.253361376051075,10.662910901767361],[-63.25344357113829,10.662924057060621],[-63.25530352440494,10.664408767838012],[-63.25685614181414,10.665589693010148],[-63.25735352251711,10.666005720032985],[-63.25619714386781,10.667171201359963]],"type":"LineString"}}]}