{"type":"FeatureCollection","features":[{"type":"Feature","properties":{},"geometry":{"coordinates":[[-63.25097202310043,10.665810656234171],[-63.25260725914947,10.663830769358555],[-63.25377956824653,10.662305188887572],[-63.25515410674333,10.660620318957754],[-63.25653897252427,10.658872169430936],[-63.25722838374831,10.65800921034834],[-63.25712484926345,10.657894107531419],[-63.25675628085409,10.657596290274242],[-63.2563755820413,10.657312414522636],[-63.25609696049217,10.65710259745795],[-63.255964657741416,10.656957623199304],[-63.25589499362276,10.656842513131252],[-63.25584661828388,10.65670537925601],[-63.255832292381825,10.656463097056076],[-63.25584819205332,10.656285329981472],[-63.256429036767585,10.655192668771036],[-63.256952083347315,10.654414042478976],[-63.25711799868671,10.654149562439173],[-63.257212729657496,10.653938068321409],[-63.2572656344023,10.653758549264495],[-63.25732623151187,10.653546867622424],[-63.25733281328523,10.653349650003591],[-63.2573159974136,10.652863145518822],[-63.25718644428025,10.65160201554319],[-63.25704157617463,10.650833226758465],[-63.25694726946021,10.649953966730763],[-63.25669265640025,10.648597938393095],[-63.25645884059287,10.647284666062845],[-63.25618390605776,10.645514965998174],[-63.25604282190437,10.644566297832924],[-63.2558829272738,10.643286472629057],[-63.255784555443114,10.642475379599702],[-63.25593432504574,10.641828303746948],[-63.256265468378714,10.64116248536871],[-63.25665195517402,10.640471190223579],[-63.25680064206934,10.640064320293476],[-63.25678378742694,10.639786450052881],[-63.25663160488692,10.638772270541835],[-63.25654849214182,10.638019664930582],[-63.25646389303181,10.637191730058433],[-63.256367268086535,10.636534323691706],[-63.25631165372063,10.635936352189916],[-63.25615698567297,10.634691392345829],[-63.25598258857154,10.633304574265793],[-63.255831121455145,10.631998331700984],[-63.255787264596236,10.631666627660707],[-63.255823548590286,10.631334147580688],[-63.25585628605447,10.631219589635137],[-63.255932627214264,10.631120703410147],[-63.25600709563669,10.630990941780041],[-63.2561196339321,10.630889570143893],[-63.256267057359494,10.63077631220645],[-63.25685316986463,10.630376409849973],[-63.25711022177451,10.630193300046116],[-63.25723570045167,10.630097366998712],[-63.25735246056446,10.629973875800502],[-63.25740170422637,10.629837936446208],[-63.25747336048367,10.629749874685729],[-63.25757571792627,10.62969269823455],[-63.25847225646318,10.629502659448406],[-63.259099000342616,10.629385187558526],[-63.2599841575922,10.629169325561392],[-63.26070382782518,10.629971858327949],[-63.26102399963824,10.630302459515107],[-63.2613434185254,10.63062766531992],[-63.26150883588505,10.630751022965526],[-63.261825821188026,10.630915180343038],[-63.26213653289187,10.631117887801835],[-63.2623243574389,10.631255034766212],[-63.26230091485816,10.634087045030526],[-63.262312687303506,10.63436241409292],[-63.26416319710113,10.634394379739348],[-63.2666063970142,10.634381727303605],[-63.266681334618184,10.634346836432883],[-63.26672302392383,10.631522802761921],[-63.26414459558593,10.6314862705337],[-63.26410169356383,10.631261388793234],[-63.26292704145531,10.631244050695017]],"type":"LineString"}}]}